GUOWANG TEST OBJECT C   
1 69322U 26120C   26156.05703209  .00021135  00000+0  53989-3 0  9997
2 69322  54.9977  82.3496 0009336 301.6067  58.4050 15.39445008   822
GUOWANG TEST OBJECT D   
1 69323U 26120D   26155.66644343  .00032137  00000+0  80800-3 0  9993
2 69323  55.0029  84.1123 0008002 301.7889  58.2360 15.39704502   764
QIANFAN-163             
1 69325U 26121A   26156.16127957  .00000025  00000+0  17012-4 0  9996
2 69325  89.0163 301.7321 0018924 222.8142 137.1542 13.60350679   526
QIANFAN-164             
1 69326U 26121B   26156.16085517  .00000134  00000+0  16208-3 0  9998
2 69326  89.0159 301.7316 0018309 224.2961 135.6732 13.60503862   526
SZ-22 MODULE            
1 69328U 25272C   26155.94793699  .00022470  00000+0  27599-3 0  9990
2 69328  41.4810  36.4880 0008356 350.2706   9.7969 15.59719201  1418
